ONEWEB-0128             
1 47274U 20100S   25184.62712138  .00000078  00000+0  18250-3 0  9990
2 47274  87.8877  60.0215 0002038  82.6753 277.4607 13.12444038219026
ONEWEB-0129             
1 47275U 20100T   25184.60603065 -.00000408  00000+0 -11697-2 0  9993
2 47275  87.8872  59.9693 0002621  56.3591 303.7788 13.12443037218957
ONEWEB-0130             
1 47276U 20100U   25184.55737398  .00000346  00000+0  92530-3 0  9990
2 47276  87.8870  59.9802 0001903  80.6351 279.4993 13.12444206218916
ONEWEB-0131             
1 47277U 20100V   25184.63037359  .00000228  00000+0  59887-3 0  9997
2 47277  87.8873  59.9915 0001872  82.6769 277.4572 13.12443630218961
ONEWEB-0132             
1 47278U 20100W   25184.58332294  .00000015  00000+0  51670-5 0  9996
2 47278  87.8871  60.0023 0001692  86.2042 273.9280 13.12441904218854
ONEWEB-0133             
1 47279U 20100X   25184.67564052 -.00000338  00000+0 -97577-3 0  9990
2 47279  87.8868  59.9615 0001928  84.2908 275.8440 13.12442875219023
ONEWEB-0134             
1 47280U 20100Y   25184.56873179  .00000358  00000+0  96025-3 0  9990
2 47280  87.8865  59.9662 0002077  79.7301 280.4062 13.12442696218983
ONEWEB-0135             
1 47281U 20100Z   25184.61576387 -.00000286  00000+0 -83149-3 0  9993
2 47281  87.8870  59.9944 0002271  84.5397 275.5990 13.12443565219014
